[{"OBJECT_NAME":"STARLINK-5609","OBJECT_ID":"2023-013T","EPOCH":"2025-11-19T23:06:59.842368","MEAN_MOTION":15.02535279,"ECCENTRICITY":0.00014529,"INCLINATION":43.0028,"RA_OF_ASC_NODE":176.5588,"ARG_OF_PERICENTER":272.9743,"MEAN_ANOMALY":87.0933,"EPHEMERIS_TYPE":0,"CLASSIFICATION_TYPE":"U","NORAD_CAT_ID":55348,"ELEMENT_SET_NO":999,"REV_AT_EPOCH":15520,"BSTAR":7.8709808e-5,"MEAN_MOTION_DOT":8.6e-6,"MEAN_MOTION_DDOT":0},{"OBJECT_NAME":"STARLINK-5666","OBJECT_ID":"2023-013U","EPOCH":"2025-11-19T23:02:11.923008","MEAN_MOTION":15.02533915,"ECCENTRICITY":0.00012281,"INCLINATION":43.003,"RA_OF_ASC_NODE":176.5329,"ARG_OF_PERICENTER":272.7537,"MEAN_ANOMALY":87.3165,"EPHEMERIS_TYPE":0,"CLASSIFICATION_TYPE":"U","NORAD_CAT_ID":55349,"ELEMENT_SET_NO":999,"REV_AT_EPOCH":15520,"BSTAR":4.870082e-5,"MEAN_MOTION_DOT":4.54e-6,"MEAN_MOTION_DDOT":0},{"OBJECT_NAME":"STARLINK-5668","OBJECT_ID":"2023-013V","EPOCH":"2025-11-19T22:57:24.310368","MEAN_MOTION":15.02534471,"ECCENTRICITY":0.00012074,"INCLINATION":43.0042,"RA_OF_ASC_NODE":176.5102,"ARG_OF_PERICENTER":268.9384,"MEAN_ANOMALY":91.132,"EPHEMERIS_TYPE":0,"CLASSIFICATION_TYPE":"U","NORAD_CAT_ID":55350,"ELEMENT_SET_NO":999,"REV_AT_EPOCH":15520,"BSTAR":4.9387718e-5,"MEAN_MOTION_DOT":4.64e-6,"MEAN_MOTION_DDOT":0},{"OBJECT_NAME":"STARLINK-5659","OBJECT_ID":"2023-013W","EPOCH":"2025-11-20T06:40:03.965088","MEAN_MOTION":15.02533559,"ECCENTRICITY":7.943e-5,"INCLINATION":43.0027,"RA_OF_ASC_NODE":174.6155,"ARG_OF_PERICENTER":272.5353,"MEAN_ANOMALY":87.5398,"EPHEMERIS_TYPE":0,"CLASSIFICATION_TYPE":"U","NORAD_CAT_ID":55351,"ELEMENT_SET_NO":999,"REV_AT_EPOCH":15525,"BSTAR":8.5590688e-5,"MEAN_MOTION_DOT":9.53e-6,"MEAN_MOTION_DDOT":0},{"OBJECT_NAME":"STARLINK-5547","OBJECT_ID":"2023-013X","EPOCH":"2025-11-20T06:48:03.299328","MEAN_MOTION":15.02535289,"ECCENTRICITY":7.897e-5,"INCLINATION":43.0014,"RA_OF_ASC_NODE":174.6602,"ARG_OF_PERICENTER":265.7241,"MEAN_ANOMALY":94.3511,"EPHEMERIS_TYPE":0,"CLASSIFICATION_TYPE":"U","NORAD_CAT_ID":55352,"ELEMENT_SET_NO":999,"REV_AT_EPOCH":15525,"BSTAR":-6.0008821e-5,"MEAN_MOTION_DOT":-1.014e-5,"MEAN_MOTION_DDOT":0},{"OBJECT_NAME":"STARLINK-5608","OBJECT_ID":"2023-013Y","EPOCH":"2025-11-19T22:20:39.096384","MEAN_MOTION":15.02543953,"ECCENTRICITY":0.00011317,"INCLINATION":43.0041,"RA_OF_ASC_NODE":176.3151,"ARG_OF_PERICENTER":277.5943,"MEAN_ANOMALY":82.4771,"EPHEMERIS_TYPE":0,"CLASSIFICATION_TYPE":"U","NORAD_CAT_ID":55353,"ELEMENT_SET_NO":999,"REV_AT_EPOCH":15520,"BSTAR":2.942478e-6,"MEAN_MOTION_DOT":-1.64e-6,"MEAN_MOTION_DDOT":0},{"OBJECT_NAME":"STARLINK-5649","OBJECT_ID":"2023-013Z","EPOCH":"2025-11-20T06:44:51.595872","MEAN_MOTION":15.02535823,"ECCENTRICITY":9.885e-5,"INCLINATION":43.003,"RA_OF_ASC_NODE":174.6443,"ARG_OF_PERICENTER":264.07,"MEAN_ANOMALY":96.003,"EPHEMERIS_TYPE":0,"CLASSIFICATION_TYPE":"U","NORAD_CAT_ID":55354,"ELEMENT_SET_NO":999,"REV_AT_EPOCH":15525,"BSTAR":2.5732263e-5,"MEAN_MOTION_DOT":1.44e-6,"MEAN_MOTION_DDOT":0},{"OBJECT_NAME":"STARLINK-5647","OBJECT_ID":"2023-013AA","EPOCH":"2025-11-19T20:56:05.002368","MEAN_MOTION":15.02537828,"ECCENTRICITY":4.855e-5,"INCLINATION":43.002,"RA_OF_ASC_NODE":176.7214,"ARG_OF_PERICENTER":262.5486,"MEAN_ANOMALY":97.5301,"EPHEMERIS_TYPE":0,"CLASSIFICATION_TYPE":"U","NORAD_CAT_ID":55355,"ELEMENT_SET_NO":999,"REV_AT_EPOCH":15518,"BSTAR":0.00024508254,"MEAN_MOTION_DOT":3.109e-5,"MEAN_MOTION_DDOT":0},{"OBJECT_NAME":"STARLINK-5651","OBJECT_ID":"2023-013AC","EPOCH":"2025-11-20T06:32:03.054048","MEAN_MOTION":15.02583038,"ECCENTRICITY":0.00016028,"INCLINATION":43.0062,"RA_OF_ASC_NODE":174.5715,"ARG_OF_PERICENTER":267.4746,"MEAN_ANOMALY":92.5913,"EPHEMERIS_TYPE":0,"CLASSIFICATION_TYPE":"U","NORAD_CAT_ID":55357,"ELEMENT_SET_NO":999,"REV_AT_EPOCH":15525,"BSTAR":-0.00059787141,"MEAN_MOTION_DOT":-8.281e-5,"MEAN_MOTION_DDOT":0},{"OBJECT_NAME":"STARLINK-5622","OBJECT_ID":"2023-013AD","EPOCH":"2025-11-20T06:35:16.132128","MEAN_MOTION":15.02534343,"ECCENTRICITY":0.00012981,"INCLINATION":43.0034,"RA_OF_ASC_NODE":174.5934,"ARG_OF_PERICENTER":266.4067,"MEAN_ANOMALY":93.6627,"EPHEMERIS_TYPE":0,"CLASSIFICATION_TYPE":"U","NORAD_CAT_ID":55358,"ELEMENT_SET_NO":999,"REV_AT_EPOCH":15525,"BSTAR":7.5963356e-5,"MEAN_MOTION_DOT":8.23e-6,"MEAN_MOTION_DDOT":0},{"OBJECT_NAME":"STARLINK-5641","OBJECT_ID":"2023-013AE","EPOCH":"2025-11-19T20:52:58.747296","MEAN_MOTION":15.02488421,"ECCENTRICITY":0.00012711,"INCLINATION":43.0071,"RA_OF_ASC_NODE":176.7214,"ARG_OF_PERICENTER":285.7067,"MEAN_ANOMALY":74.3635,"EPHEMERIS_TYPE":0,"CLASSIFICATION_TYPE":"U","NORAD_CAT_ID":55359,"ELEMENT_SET_NO":999,"REV_AT_EPOCH":15519,"BSTAR":-0.00069568906,"MEAN_MOTION_DOT":-9.576e-5,"MEAN_MOTION_DDOT":0},{"OBJECT_NAME":"STARLINK-5664","OBJECT_ID":"2023-013AF","EPOCH":"2025-11-19T22:04:17.228640","MEAN_MOTION":15.02538126,"ECCENTRICITY":0.00011858,"INCLINATION":43.0018,"RA_OF_ASC_NODE":189.222,"ARG_OF_PERICENTER":285.8092,"MEAN_ANOMALY":74.262,"EPHEMERIS_TYPE":0,"CLASSIFICATION_TYPE":"U","NORAD_CAT_ID":55360,"ELEMENT_SET_NO":999,"REV_AT_EPOCH":15505,"BSTAR":0.00017547137,"MEAN_MOTION_DOT":2.168e-5,"MEAN_MOTION_DDOT":0},{"OBJECT_NAME":"STARLINK-5665","OBJECT_ID":"2023-013AG","EPOCH":"2025-11-20T06:43:37.738560","MEAN_MOTION":15.02537273,"ECCENTRICITY":0.0001179,"INCLINATION":43.0045,"RA_OF_ASC_NODE":161.6314,"ARG_OF_PERICENTER":278.5917,"MEAN_ANOMALY":81.4792,"EPHEMERIS_TYPE":0,"CLASSIFICATION_TYPE":"U","NORAD_CAT_ID":55361,"ELEMENT_SET_NO":999,"REV_AT_EPOCH":15540,"BSTAR":3.0445081e-5,"MEAN_MOTION_DOT":2.08e-6,"MEAN_MOTION_DDOT":0},{"OBJECT_NAME":"STARLINK-5574","OBJECT_ID":"2023-013AH","EPOCH":"2025-11-19T23:00:58.488192","MEAN_MOTION":15.02533713,"ECCENTRICITY":8.857e-5,"INCLINATION":43.0027,"RA_OF_ASC_NODE":163.5182,"ARG_OF_PERICENTER":258.5291,"MEAN_ANOMALY":101.5452,"EPHEMERIS_TYPE":0,"CLASSIFICATION_TYPE":"U","NORAD_CAT_ID":55362,"ELEMENT_SET_NO":999,"REV_AT_EPOCH":15535,"BSTAR":0.00012076146,"MEAN_MOTION_DOT":1.428e-5,"MEAN_MOTION_DDOT":0},{"OBJECT_NAME":"STARLINK-5627","OBJECT_ID":"2023-013AK","EPOCH":"2025-11-19T20:49:42.252960","MEAN_MOTION":15.02537448,"ECCENTRICITY":9.763e-5,"INCLINATION":42.9999,"RA_OF_ASC_NODE":176.6977,"ARG_OF_PERICENTER":242.4069,"MEAN_ANOMALY":117.6675,"EPHEMERIS_TYPE":0,"CLASSIFICATION_TYPE":"U","NORAD_CAT_ID":55364,"ELEMENT_SET_NO":999,"REV_AT_EPOCH":15519,"BSTAR":7.4981144e-5,"MEAN_MOTION_DOT":8.1e-6,"MEAN_MOTION_DDOT":0},{"OBJECT_NAME":"STARLINK-5639","OBJECT_ID":"2023-013AL","EPOCH":"2025-11-19T08:40:16.459968","MEAN_MOTION":15.02532916,"ECCENTRICITY":8.079e-5,"INCLINATION":43.0033,"RA_OF_ASC_NODE":192.7742,"ARG_OF_PERICENTER":292.53,"MEAN_ANOMALY":67.5457,"EPHEMERIS_TYPE":0,"CLASSIFICATION_TYPE":"U","NORAD_CAT_ID":55365,"ELEMENT_SET_NO":999,"REV_AT_EPOCH":15496,"BSTAR":8.0907172e-5,"MEAN_MOTION_DOT":8.89e-6,"MEAN_MOTION_DDOT":0}]
