STARLINK-5609           
1 55348U 23013T   25323.96319262  .00000860  00000+0  78710-4 0  9997
2 55348  43.0028 176.5588 0001452 272.9743  87.0933 15.02535279155202
STARLINK-5666           
1 55349U 23013U   25323.95986022  .00000454  00000+0  48701-4 0  9997
2 55349  43.0030 176.5329 0001228 272.7537  87.3165 15.02533915155204
STARLINK-5668           
1 55350U 23013V   25323.95653137  .00000464  00000+0  49388-4 0  9990
2 55350  43.0042 176.5102 0001207 268.9384  91.1320 15.02534471155206
STARLINK-5659           
1 55351U 23013W   25324.27782367  .00000953  00000+0  85591-4 0  9994
2 55351  43.0027 174.6155 0000794 272.5353  87.5398 15.02533559155259
STARLINK-5547           
1 55352U 23013X   25324.28337152 -.00001014  00000+0 -60009-4 0  9992
2 55352  43.0014 174.6602 0000789 265.7241  94.3511 15.02535289155252
STARLINK-5608           
1 55353U 23013Y   25323.93100806 -.00000164  00000+0  29425-5 0  9990
2 55353  43.0041 176.3151 0001131 277.5943  82.4771 15.02543953155201
STARLINK-5649           
1 55354U 23013Z   25324.28115273  .00000144  00000+0  25732-4 0  9997
2 55354  43.0030 174.6443 0000988 264.0700  96.0030 15.02535823155257
STARLINK-5647           
1 55355U 23013AA  25323.87228012  .00003109  00000+0  24508-3 0  9991
2 55355  43.0020 176.7214 0000485 262.5486  97.5301 15.02537828155188
STARLINK-5651           
1 55357U 23013AC  25324.27225757 -.00008281  00000+0 -59787-3 0  9996
2 55357  43.0062 174.5715 0001602 267.4746  92.5913 15.02583038155259
STARLINK-5622           
1 55358U 23013AD  25324.27449227  .00000823  00000+0  75963-4 0  9994
2 55358  43.0034 174.5934 0001298 266.4067  93.6627 15.02534343155257
STARLINK-5641           
1 55359U 23013AE  25323.87012439 -.00009576  00000+0 -69569-3 0  9991
2 55359  43.0071 176.7214 0001271 285.7067  74.3635 15.02488421155192
STARLINK-5664           
1 55360U 23013AF  25323.91964385  .00002168  00000+0  17547-3 0  9991
2 55360  43.0018 189.2220 0001185 285.8092  74.2620 15.02538126155050
STARLINK-5665           
1 55361U 23013AG  25324.28029790  .00000208  00000+0  30445-4 0  9991
2 55361  43.0045 161.6314 0001179 278.5917  81.4792 15.02537273155408
STARLINK-5574           
1 55362U 23013AH  25323.95901028  .00001428  00000+0  12076-3 0  9992
2 55362  43.0027 163.5182 0000885 258.5291 101.5452 15.02533713155355
STARLINK-5627           
1 55364U 23013AK  25323.86785015  .00000810  00000+0  74981-4 0  9998
2 55364  42.9999 176.6977 0000976 242.4069 117.6675 15.02537448155192
STARLINK-5639           
1 55365U 23013AL  25323.36130162  .00000889  00000+0  80907-4 0  9992
2 55365  43.0033 192.7742 0000807 292.5300  67.5457 15.02532916154960
